GLOBALSTAR M067         
1 32263U 07048A   25158.44863273 -.00000111  00000+0 -10392-3 0  9995
2 32263  51.9741  64.4267 0001209 356.8539 175.1491 12.40672814808273
GLOBALSTAR M070         
1 32264U 07048B   25158.49195184 -.00000077  00000+0  15034-3 0  9998
2 32264  51.9721 158.0384 0000220  75.3325  62.3473 12.62319256812443
GLOBALSTAR M066         
1 32265U 07048C   25158.42940843 -.00000109  00000+0 -10729-3 0  9995
2 32265  51.9660  53.6811 0000993 200.0534 331.3575 12.35104083814092
GLOBALSTAR M068         
1 32266U 07048D   25158.91335691 -.00000039  00000+0  35935-3 0  9996
2 32266  51.9900 330.5268 0001842 107.5933  57.3590 12.62824554816671
GLOBALSTAR M079         
1 37188U 10054A   25158.77803846 -.00000082  00000+0  11873-3 0  9994
2 37188  52.0010 168.4280 0000241 277.6663 253.4553 12.62264992675941
GLOBALSTAR M074         
1 37189U 10054B   25158.56290618 -.00000085  00000+0  10648-3 0  9991
2 37189  51.9986 168.4078 0000203   2.9994 149.0845 12.62256945675843
GLOBALSTAR M076         
1 37190U 10054C   25158.51350944 -.00000105  00000+0 -93001-5 0  9997
2 37190  52.0008 168.7277 0000277 334.0460 193.9131 12.62263328675551
GLOBALSTAR M077         
1 37191U 10054D   25158.86337333 -.00000106  00000+0 -14445-4 0  9998
2 37191  52.0053 124.5157 0000350  29.4626 348.9070 12.62268373676707
